[{"OBJECT_NAME":"STARLINK-3922","OBJECT_ID":"2022-051BA","EPOCH":"2026-03-09T09:54:36.922176","MEAN_MOTION":15.08838869,"ECCENTRICITY":0.00014093,"INCLINATION":53.2167,"RA_OF_ASC_NODE":120.3627,"ARG_OF_PERICENTER":98.0258,"MEAN_ANOMALY":262.0895,"EPHEMERIS_TYPE":0,"CLASSIFICATION_TYPE":"U","NORAD_CAT_ID":52584,"ELEMENT_SET_NO":999,"REV_AT_EPOCH":21154,"BSTAR":-1.1077199e-5,"MEAN_MOTION_DOT":-4.64e-6,"MEAN_MOTION_DDOT":0},{"OBJECT_NAME":"CHUANGXIN 16A (CX-16A)","OBJECT_ID":"2022-102A","EPOCH":"2026-03-09T19:59:28.991616","MEAN_MOTION":15.05552649,"ECCENTRICITY":0.0005063,"INCLINATION":28.9941,"RA_OF_ASC_NODE":256.1289,"ARG_OF_PERICENTER":43.7318,"MEAN_ANOMALY":316.3682,"EPHEMERIS_TYPE":0,"CLASSIFICATION_TYPE":"U","NORAD_CAT_ID":53586,"ELEMENT_SET_NO":999,"REV_AT_EPOCH":19453,"BSTAR":0.00020134,"MEAN_MOTION_DOT":3.128e-5,"MEAN_MOTION_DDOT":0}]
